STARLINK-31398          
1 59415U 24064T   26082.13885220  .00000207  00000+0  17054-4 0  9996
2 59415  43.0038 340.1281 0001336 259.9057 100.1644 15.27582636111287
STARLINK-31399          
1 59416U 24064U   26082.00167944 -.00003280  00000+0 -10980-3 0  9995
2 59416  43.0006 340.8158 0002154 268.0271  92.0334 15.27550759111265
STARLINK-31401          
1 59417U 24064V   26081.95010438 -.00001853  00000+0 -57863-4 0  9990
2 59417  43.0007 334.3701 0000836 264.0940  95.9817 15.27560724111084
STARLINK-31414          
1 59418U 24064W   26081.95426692 -.00000254  00000+0  30646-6 0  9999
2 59418  43.0015 341.3278 0001487 268.6319  91.4362 15.27571106111255
STARLINK-31415          
1 59419U 24064X   26082.11074298 -.00001921  00000+0 -60306-4 0  9997
2 59419  43.0037 340.7805 0001274 235.2865 124.7867 15.27574326111278
STARLINK-31466          
1 59420U 24064Y   26081.71458346 -.00003324  00000+0 -11142-3 0  9996
2 59420  43.0054 342.9687 0001786 257.9455 102.1197 15.27548532111215
STARLINK-11087 [DTC]    
1 59421U 24065A   26082.13917123  .00004849  00000+0  44797-4 0  9992
2 59421  53.1599  27.7185 0001465 119.6675 240.4489 15.69747318113621
STARLINK-11090 [DTC]    
1 59422U 24065B   26082.12446760  .00006529  00000+0  58619-4 0  9991
2 59422  53.1579  27.6193 0001284  95.6786 264.4378 15.69745820113644
STARLINK-11093 [DTC]    
1 59423U 24065C   26082.00204910  .00002949  00000+0  29175-4 0  9995
2 59423  53.1573  28.2794 0000836 101.6510 258.4602 15.69720594113619
STARLINK-11083 [DTC]    
1 59424U 24065D   26082.13428664  .00005975  00000+0  54105-4 0  9997
2 59424  53.1587  27.6857 0000781  95.7490 264.3617 15.69725992113582
STARLINK-11085 [DTC]    
1 59425U 24065E   26082.18324319  .00011584  00000+0  10024-3 0  9999
2 59425  53.1587  27.2759 0001401  79.0237 281.0939 15.69736153113599
STARLINK-11089 [DTC]    
1 59426U 24065F   26082.14411436  .00044475  00000+0  36940-3 0  9993
2 59426  53.1585  27.7682 0000187  91.9021 268.2018 15.69748090113635
STARLINK-31757          
1 59427U 24065G   26082.10301649  .00000293  00000+0  22017-4 0  9995
2 59427  53.1607 219.3388 0000710  99.0189 261.0892 15.30194414110988
STARLINK-31773          
1 59429U 24065J   26082.08454782  .00000062  00000+0  14198-4 0  9996
2 59429  53.1584 221.3448 0000944 109.9275 250.1827 15.30199080110958
STARLINK-31772          
1 59430U 24065K   26082.08718772 -.00001038  00000+0 -22942-4 0  9992
2 59430  53.1602 219.2249 0000954 113.8137 246.2964 15.30194593110983
STARLINK-31613          
1 59431U 24065L   26082.09985183 -.00000033  00000+0  11008-4 0  9990
2 59431  53.1604 219.3099 0000923  96.5423 263.5683 15.30195685110984
