[{"OBJECT_NAME":"STARLINK-31398","OBJECT_ID":"2024-064T","EPOCH":"2026-03-23T03:19:56.830080","MEAN_MOTION":15.27582636,"ECCENTRICITY":0.00013361,"INCLINATION":43.0038,"RA_OF_ASC_NODE":340.1281,"ARG_OF_PERICENTER":259.9057,"MEAN_ANOMALY":100.1644,"EPHEMERIS_TYPE":0,"CLASSIFICATION_TYPE":"U","NORAD_CAT_ID":59415,"ELEMENT_SET_NO":999,"REV_AT_EPOCH":11128,"BSTAR":1.7053985e-5,"MEAN_MOTION_DOT":2.07e-6,"MEAN_MOTION_DDOT":0},{"OBJECT_NAME":"STARLINK-31399","OBJECT_ID":"2024-064U","EPOCH":"2026-03-23T00:02:25.103616","MEAN_MOTION":15.27550759,"ECCENTRICITY":0.00021549,"INCLINATION":43.0006,"RA_OF_ASC_NODE":340.8158,"ARG_OF_PERICENTER":268.0271,"MEAN_ANOMALY":92.0334,"EPHEMERIS_TYPE":0,"CLASSIFICATION_TYPE":"U","NORAD_CAT_ID":59416,"ELEMENT_SET_NO":999,"REV_AT_EPOCH":11126,"BSTAR":-0.00010979762,"MEAN_MOTION_DOT":-3.28e-5,"MEAN_MOTION_DDOT":0},{"OBJECT_NAME":"STARLINK-31401","OBJECT_ID":"2024-064V","EPOCH":"2026-03-22T22:48:09.018432","MEAN_MOTION":15.27560724,"ECCENTRICITY":8.368e-5,"INCLINATION":43.0007,"RA_OF_ASC_NODE":334.3701,"ARG_OF_PERICENTER":264.094,"MEAN_ANOMALY":95.9817,"EPHEMERIS_TYPE":0,"CLASSIFICATION_TYPE":"U","NORAD_CAT_ID":59417,"ELEMENT_SET_NO":999,"REV_AT_EPOCH":11108,"BSTAR":-5.7862922e-5,"MEAN_MOTION_DOT":-1.853e-5,"MEAN_MOTION_DDOT":0},{"OBJECT_NAME":"STARLINK-31414","OBJECT_ID":"2024-064W","EPOCH":"2026-03-22T22:54:08.661888","MEAN_MOTION":15.27571106,"ECCENTRICITY":0.00014877,"INCLINATION":43.0015,"RA_OF_ASC_NODE":341.3278,"ARG_OF_PERICENTER":268.6319,"MEAN_ANOMALY":91.4362,"EPHEMERIS_TYPE":0,"CLASSIFICATION_TYPE":"U","NORAD_CAT_ID":59418,"ELEMENT_SET_NO":999,"REV_AT_EPOCH":11125,"BSTAR":3.06457e-7,"MEAN_MOTION_DOT":-2.54e-6,"MEAN_MOTION_DDOT":0},{"OBJECT_NAME":"STARLINK-31415","OBJECT_ID":"2024-064X","EPOCH":"2026-03-23T02:39:28.193472","MEAN_MOTION":15.27574326,"ECCENTRICITY":0.00012744,"INCLINATION":43.0037,"RA_OF_ASC_NODE":340.7805,"ARG_OF_PERICENTER":235.2865,"MEAN_ANOMALY":124.7867,"EPHEMERIS_TYPE":0,"CLASSIFICATION_TYPE":"U","NORAD_CAT_ID":59419,"ELEMENT_SET_NO":999,"REV_AT_EPOCH":11127,"BSTAR":-6.0306273e-5,"MEAN_MOTION_DOT":-1.921e-5,"MEAN_MOTION_DDOT":0},{"OBJECT_NAME":"STARLINK-31466","OBJECT_ID":"2024-064Y","EPOCH":"2026-03-22T17:09:00.010944","MEAN_MOTION":15.27548532,"ECCENTRICITY":0.00017864,"INCLINATION":43.0054,"RA_OF_ASC_NODE":342.9687,"ARG_OF_PERICENTER":257.9455,"MEAN_ANOMALY":102.1197,"EPHEMERIS_TYPE":0,"CLASSIFICATION_TYPE":"U","NORAD_CAT_ID":59420,"ELEMENT_SET_NO":999,"REV_AT_EPOCH":11121,"BSTAR":-0.00011141821,"MEAN_MOTION_DOT":-3.324e-5,"MEAN_MOTION_DDOT":0},{"OBJECT_NAME":"STARLINK-11087 [DTC]","OBJECT_ID":"2024-065A","EPOCH":"2026-03-23T03:20:24.394272","MEAN_MOTION":15.69747318,"ECCENTRICITY":0.00014651,"INCLINATION":53.1599,"RA_OF_ASC_NODE":27.7185,"ARG_OF_PERICENTER":119.6675,"MEAN_ANOMALY":240.4489,"EPHEMERIS_TYPE":0,"CLASSIFICATION_TYPE":"U","NORAD_CAT_ID":59421,"ELEMENT_SET_NO":999,"REV_AT_EPOCH":11362,"BSTAR":4.4797415e-5,"MEAN_MOTION_DOT":4.849e-5,"MEAN_MOTION_DDOT":0},{"OBJECT_NAME":"STARLINK-11090 [DTC]","OBJECT_ID":"2024-065B","EPOCH":"2026-03-23T02:59:14.000640","MEAN_MOTION":15.6974582,"ECCENTRICITY":0.00012844,"INCLINATION":53.1579,"RA_OF_ASC_NODE":27.6193,"ARG_OF_PERICENTER":95.6786,"MEAN_ANOMALY":264.4378,"EPHEMERIS_TYPE":0,"CLASSIFICATION_TYPE":"U","NORAD_CAT_ID":59422,"ELEMENT_SET_NO":999,"REV_AT_EPOCH":11364,"BSTAR":5.8618756e-5,"MEAN_MOTION_DOT":6.529e-5,"MEAN_MOTION_DDOT":0},{"OBJECT_NAME":"STARLINK-11093 [DTC]","OBJECT_ID":"2024-065C","EPOCH":"2026-03-23T00:02:57.042240","MEAN_MOTION":15.69720594,"ECCENTRICITY":8.364e-5,"INCLINATION":53.1573,"RA_OF_ASC_NODE":28.2794,"ARG_OF_PERICENTER":101.651,"MEAN_ANOMALY":258.4602,"EPHEMERIS_TYPE":0,"CLASSIFICATION_TYPE":"U","NORAD_CAT_ID":59423,"ELEMENT_SET_NO":999,"REV_AT_EPOCH":11361,"BSTAR":2.9175286e-5,"MEAN_MOTION_DOT":2.949e-5,"MEAN_MOTION_DDOT":0},{"OBJECT_NAME":"STARLINK-11083 [DTC]","OBJECT_ID":"2024-065D","EPOCH":"2026-03-23T03:13:22.365696","MEAN_MOTION":15.69725992,"ECCENTRICITY":7.815e-5,"INCLINATION":53.1587,"RA_OF_ASC_NODE":27.6857,"ARG_OF_PERICENTER":95.749,"MEAN_ANOMALY":264.3617,"EPHEMERIS_TYPE":0,"CLASSIFICATION_TYPE":"U","NORAD_CAT_ID":59424,"ELEMENT_SET_NO":999,"REV_AT_EPOCH":11358,"BSTAR":5.4104592e-5,"MEAN_MOTION_DOT":5.975e-5,"MEAN_MOTION_DDOT":0},{"OBJECT_NAME":"STARLINK-11085 [DTC]","OBJECT_ID":"2024-065E","EPOCH":"2026-03-23T04:23:52.211616","MEAN_MOTION":15.69736153,"ECCENTRICITY":0.00014013,"INCLINATION":53.1587,"RA_OF_ASC_NODE":27.2759,"ARG_OF_PERICENTER":79.0237,"MEAN_ANOMALY":281.0939,"EPHEMERIS_TYPE":0,"CLASSIFICATION_TYPE":"U","NORAD_CAT_ID":59425,"ELEMENT_SET_NO":999,"REV_AT_EPOCH":11359,"BSTAR":0.00010023637,"MEAN_MOTION_DOT":0.00011584,"MEAN_MOTION_DDOT":0},{"OBJECT_NAME":"STARLINK-11089 [DTC]","OBJECT_ID":"2024-065F","EPOCH":"2026-03-23T03:27:31.480704","MEAN_MOTION":15.6974809,"ECCENTRICITY":1.875e-5,"INCLINATION":53.1585,"RA_OF_ASC_NODE":27.7682,"ARG_OF_PERICENTER":91.9021,"MEAN_ANOMALY":268.2018,"EPHEMERIS_TYPE":0,"CLASSIFICATION_TYPE":"U","NORAD_CAT_ID":59426,"ELEMENT_SET_NO":999,"REV_AT_EPOCH":11363,"BSTAR":0.00036940046,"MEAN_MOTION_DOT":0.00044475,"MEAN_MOTION_DDOT":0},{"OBJECT_NAME":"STARLINK-31757","OBJECT_ID":"2024-065G","EPOCH":"2026-03-23T02:28:20.624736","MEAN_MOTION":15.30194414,"ECCENTRICITY":7.107e-5,"INCLINATION":53.1607,"RA_OF_ASC_NODE":219.3388,"ARG_OF_PERICENTER":99.0189,"MEAN_ANOMALY":261.0892,"EPHEMERIS_TYPE":0,"CLASSIFICATION_TYPE":"U","NORAD_CAT_ID":59427,"ELEMENT_SET_NO":999,"REV_AT_EPOCH":11098,"BSTAR":2.2016572e-5,"MEAN_MOTION_DOT":2.93e-6,"MEAN_MOTION_DDOT":0},{"OBJECT_NAME":"STARLINK-31773","OBJECT_ID":"2024-065J","EPOCH":"2026-03-23T02:01:44.931648","MEAN_MOTION":15.3019908,"ECCENTRICITY":9.44e-5,"INCLINATION":53.1584,"RA_OF_ASC_NODE":221.3448,"ARG_OF_PERICENTER":109.9275,"MEAN_ANOMALY":250.1827,"EPHEMERIS_TYPE":0,"CLASSIFICATION_TYPE":"U","NORAD_CAT_ID":59429,"ELEMENT_SET_NO":999,"REV_AT_EPOCH":11095,"BSTAR":1.419764e-5,"MEAN_MOTION_DOT":6.2e-7,"MEAN_MOTION_DDOT":0},{"OBJECT_NAME":"STARLINK-31772","OBJECT_ID":"2024-065K","EPOCH":"2026-03-23T02:05:33.019008","MEAN_MOTION":15.30194593,"ECCENTRICITY":9.545e-5,"INCLINATION":53.1602,"RA_OF_ASC_NODE":219.2249,"ARG_OF_PERICENTER":113.8137,"MEAN_ANOMALY":246.2964,"EPHEMERIS_TYPE":0,"CLASSIFICATION_TYPE":"U","NORAD_CAT_ID":59430,"ELEMENT_SET_NO":999,"REV_AT_EPOCH":11098,"BSTAR":-2.2942372e-5,"MEAN_MOTION_DOT":-1.038e-5,"MEAN_MOTION_DDOT":0},{"OBJECT_NAME":"STARLINK-31613","OBJECT_ID":"2024-065L","EPOCH":"2026-03-23T02:23:47.198112","MEAN_MOTION":15.30195685,"ECCENTRICITY":9.231e-5,"INCLINATION":53.1604,"RA_OF_ASC_NODE":219.3099,"ARG_OF_PERICENTER":96.5423,"MEAN_ANOMALY":263.5683,"EPHEMERIS_TYPE":0,"CLASSIFICATION_TYPE":"U","NORAD_CAT_ID":59431,"ELEMENT_SET_NO":999,"REV_AT_EPOCH":11098,"BSTAR":1.1007792e-5,"MEAN_MOTION_DOT":-3.3e-7,"MEAN_MOTION_DDOT":0}]
